ARIANE 5 R/B            
1 28499U 04049H   25312.15280179  .00001295  00000+0  14971-3 0  9996
2 28499  98.2514 111.2009 0085248  25.7424 334.7995 14.84903864127757
CZ-2D R/B               
1 28738U 05024B   25312.03448317  .00029242  00000+0  50636-3 0  9993
2 28738  97.3665 318.6270 0008161 101.8167 258.4000 15.50844119120878
ALOS (DAICHI)           
1 28931U 06002A   25311.83047841  .00002792  00000+0  48119-3 0  9993
2 28931  98.1038 263.5783 0001295  50.2528 309.8792 14.69309979 55585
H-2A R/B                
1 28932U 06002B   25311.95679706  .00011952  00000+0  64551-3 0  9994
2 28932  98.2307  83.8979 0054631 295.4348  64.1234 15.13594767 76004
RESURS-DK 1             
1 29228U 06021A   25312.09862580  .00004005  00000+0  23955-3 0  9998
2 29228  69.9328 191.3415 0007357 287.4523  72.5838 15.11874316 69149
CZ-4B R/B               
1 29507U 06046C   25312.10784243  .00007007  00000+0  36994-3 0  9998
2 29507  97.5778 352.3420 0033524 331.1194  28.8181 15.15355486 41620
CZ-2C R/B               
1 31114U 07010B   25312.19676274  .00000231  00000+0  12582-3 0  9999
2 31114  98.3958  66.5897 0057928 287.7814  71.7048 14.20188049962475
COSMO-SKYMED 1          
1 31598U 07023A   25312.19825650  .00005643  00000+0  51637-3 0  9999
2 31598  97.8852 137.3783 0001438  92.0229 268.1156 14.95377758996738
COSMOS 2428             
1 31792U 07029A   25311.83497851 -.00000213  00000+0 -88860-4 0  9998
2 31792  70.9362  99.1593 0001951  89.8468 270.2877 14.12890273946881
SL-16 R/B               
1 31793U 07029B   25312.05021985  .00000252  00000+0  15555-3 0  9996
2 31793  70.9753  68.0732 0002186 257.9802 275.0784 14.14805093948168
KORONAS-FOTON           
1 33504U 09003A   25311.68113117  .00018786  00000+0  46806-3 0  9993
2 33504  82.4339  42.3948 0010787 231.9401 128.0872 15.40043676926943
CZ-2C R/B               
1 37731U 11030B   25311.86046720  .00002910  00000+0  37588-3 0  9996
2 37731  97.8360 266.7547 0053940  28.3473  25.6777 14.80708797772068
