CCSDS_OMM_VERS = 2.0
CREATION_DATE  = 
ORIGINATOR     = 

OBJECT_NAME    = ARIANE 5 R/B
OBJECT_ID      = 2004-049H
CENTER_NAME    = EARTH
REF_FRAME      = TEME
TIME_SYSTEM    = UTC
MEAN_ELEMENT_THEORY = SGP/SGP4

EPOCH          = 2025-11-08T03:40:02.074656
MEAN_MOTION    = 14.84903864
ECCENTRICITY   = .0085248
INCLINATION    = 98.2514
RA_OF_ASC_NODE = 111.2009
ARG_OF_PERICENTER = 25.7424
MEAN_ANOMALY   = 334.7995

EPHEMERIS_TYPE = 0
CLASSIFICATION_TYPE = U
NORAD_CAT_ID   = 28499
ELEMENT_SET_NO = 999
REV_AT_EPOCH   = 12775
BSTAR          = .14971E-3
MEAN_MOTION_DOT = .1295E-4
MEAN_MOTION_DDOT = 0

CCSDS_OMM_VERS = 2.0
CREATION_DATE  = 
ORIGINATOR     = 

OBJECT_NAME    = CZ-2D R/B
OBJECT_ID      = 2005-024B
CENTER_NAME    = EARTH
REF_FRAME      = TEME
TIME_SYSTEM    = UTC
MEAN_ELEMENT_THEORY = SGP/SGP4

EPOCH          = 2025-11-08T00:49:39.345888
MEAN_MOTION    = 15.50844119
ECCENTRICITY   = .0008161
INCLINATION    = 97.3665
RA_OF_ASC_NODE = 318.6270
ARG_OF_PERICENTER = 101.8167
MEAN_ANOMALY   = 258.4000

EPHEMERIS_TYPE = 0
CLASSIFICATION_TYPE = U
NORAD_CAT_ID   = 28738
ELEMENT_SET_NO = 999
REV_AT_EPOCH   = 12087
BSTAR          = .50636E-3
MEAN_MOTION_DOT = .29242E-3
MEAN_MOTION_DDOT = 0

CCSDS_OMM_VERS = 2.0
CREATION_DATE  = 
ORIGINATOR     = 

OBJECT_NAME    = ALOS (DAICHI)
OBJECT_ID      = 2006-002A
CENTER_NAME    = EARTH
REF_FRAME      = TEME
TIME_SYSTEM    = UTC
MEAN_ELEMENT_THEORY = SGP/SGP4

EPOCH          = 2025-11-07T19:55:53.334624
MEAN_MOTION    = 14.69309979
ECCENTRICITY   = .0001295
INCLINATION    = 98.1038
RA_OF_ASC_NODE = 263.5783
ARG_OF_PERICENTER = 50.2528
MEAN_ANOMALY   = 309.8792

EPHEMERIS_TYPE = 0
CLASSIFICATION_TYPE = U
NORAD_CAT_ID   = 28931
ELEMENT_SET_NO = 999
REV_AT_EPOCH   = 5558
BSTAR          = .48119E-3
MEAN_MOTION_DOT = .2792E-4
MEAN_MOTION_DDOT = 0

CCSDS_OMM_VERS = 2.0
CREATION_DATE  = 
ORIGINATOR     = 

OBJECT_NAME    = H-2A R/B
OBJECT_ID      = 2006-002B
CENTER_NAME    = EARTH
REF_FRAME      = TEME
TIME_SYSTEM    = UTC
MEAN_ELEMENT_THEORY = SGP/SGP4

EPOCH          = 2025-11-07T22:57:47.265984
MEAN_MOTION    = 15.13594767
ECCENTRICITY   = .0054631
INCLINATION    = 98.2307
RA_OF_ASC_NODE = 83.8979
ARG_OF_PERICENTER = 295.4348
MEAN_ANOMALY   = 64.1234

EPHEMERIS_TYPE = 0
CLASSIFICATION_TYPE = U
NORAD_CAT_ID   = 28932
ELEMENT_SET_NO = 999
REV_AT_EPOCH   = 7600
BSTAR          = .64551E-3
MEAN_MOTION_DOT = .11952E-3
MEAN_MOTION_DDOT = 0

CCSDS_OMM_VERS = 2.0
CREATION_DATE  = 
ORIGINATOR     = 

OBJECT_NAME    = RESURS-DK 1
OBJECT_ID      = 2006-021A
CENTER_NAME    = EARTH
REF_FRAME      = TEME
TIME_SYSTEM    = UTC
MEAN_ELEMENT_THEORY = SGP/SGP4

EPOCH          = 2025-11-08T02:22:01.269120
MEAN_MOTION    = 15.11874316
ECCENTRICITY   = .0007357
INCLINATION    = 69.9328
RA_OF_ASC_NODE = 191.3415
ARG_OF_PERICENTER = 287.4523
MEAN_ANOMALY   = 72.5838

EPHEMERIS_TYPE = 0
CLASSIFICATION_TYPE = U
NORAD_CAT_ID   = 29228
ELEMENT_SET_NO = 999
REV_AT_EPOCH   = 6914
BSTAR          = .23955E-3
MEAN_MOTION_DOT = .4005E-4
MEAN_MOTION_DDOT = 0

CCSDS_OMM_VERS = 2.0
CREATION_DATE  = 
ORIGINATOR     = 

OBJECT_NAME    = CZ-4B R/B
OBJECT_ID      = 2006-046C
CENTER_NAME    = EARTH
REF_FRAME      = TEME
TIME_SYSTEM    = UTC
MEAN_ELEMENT_THEORY = SGP/SGP4

EPOCH          = 2025-11-08T02:35:17.585952
MEAN_MOTION    = 15.15355486
ECCENTRICITY   = .0033524
INCLINATION    = 97.5778
RA_OF_ASC_NODE = 352.3420
ARG_OF_PERICENTER = 331.1194
MEAN_ANOMALY   = 28.8181

EPHEMERIS_TYPE = 0
CLASSIFICATION_TYPE = U
NORAD_CAT_ID   = 29507
ELEMENT_SET_NO = 999
REV_AT_EPOCH   = 4162
BSTAR          = .36994E-3
MEAN_MOTION_DOT = .7007E-4
MEAN_MOTION_DDOT = 0

CCSDS_OMM_VERS = 2.0
CREATION_DATE  = 
ORIGINATOR     = 

OBJECT_NAME    = CZ-2C R/B
OBJECT_ID      = 2007-010B
CENTER_NAME    = EARTH
REF_FRAME      = TEME
TIME_SYSTEM    = UTC
MEAN_ELEMENT_THEORY = SGP/SGP4

EPOCH          = 2025-11-08T04:43:20.300736
MEAN_MOTION    = 14.20188049
ECCENTRICITY   = .0057928
INCLINATION    = 98.3958
RA_OF_ASC_NODE = 66.5897
ARG_OF_PERICENTER = 287.7814
MEAN_ANOMALY   = 71.7048

EPHEMERIS_TYPE = 0
CLASSIFICATION_TYPE = U
NORAD_CAT_ID   = 31114
ELEMENT_SET_NO = 999
REV_AT_EPOCH   = 96247
BSTAR          = .12582E-3
MEAN_MOTION_DOT = .231E-5
MEAN_MOTION_DDOT = 0

CCSDS_OMM_VERS = 2.0
CREATION_DATE  = 
ORIGINATOR     = 

OBJECT_NAME    = COSMO-SKYMED 1
OBJECT_ID      = 2007-023A
CENTER_NAME    = EARTH
REF_FRAME      = TEME
TIME_SYSTEM    = UTC
MEAN_ELEMENT_THEORY = SGP/SGP4

EPOCH          = 2025-11-08T04:45:29.361600
MEAN_MOTION    = 14.95377758
ECCENTRICITY   = .0001438
INCLINATION    = 97.8852
RA_OF_ASC_NODE = 137.3783
ARG_OF_PERICENTER = 92.0229
MEAN_ANOMALY   = 268.1156

EPHEMERIS_TYPE = 0
CLASSIFICATION_TYPE = U
NORAD_CAT_ID   = 31598
ELEMENT_SET_NO = 999
REV_AT_EPOCH   = 99673
BSTAR          = .51637E-3
MEAN_MOTION_DOT = .5643E-4
MEAN_MOTION_DDOT = 0

CCSDS_OMM_VERS = 2.0
CREATION_DATE  = 
ORIGINATOR     = 

OBJECT_NAME    = COSMOS 2428
OBJECT_ID      = 2007-029A
CENTER_NAME    = EARTH
REF_FRAME      = TEME
TIME_SYSTEM    = UTC
MEAN_ELEMENT_THEORY = SGP/SGP4

EPOCH          = 2025-11-07T20:02:22.143264
MEAN_MOTION    = 14.12890273
ECCENTRICITY   = .0001951
INCLINATION    = 70.9362
RA_OF_ASC_NODE = 99.1593
ARG_OF_PERICENTER = 89.8468
MEAN_ANOMALY   = 270.2877

EPHEMERIS_TYPE = 0
CLASSIFICATION_TYPE = U
NORAD_CAT_ID   = 31792
ELEMENT_SET_NO = 999
REV_AT_EPOCH   = 94688
BSTAR          = -.8886E-4
MEAN_MOTION_DOT = -.213E-5
MEAN_MOTION_DDOT = 0

CCSDS_OMM_VERS = 2.0
CREATION_DATE  = 
ORIGINATOR     = 

OBJECT_NAME    = SL-16 R/B
OBJECT_ID      = 2007-029B
CENTER_NAME    = EARTH
REF_FRAME      = TEME
TIME_SYSTEM    = UTC
MEAN_ELEMENT_THEORY = SGP/SGP4

EPOCH          = 2025-11-08T01:12:18.995040
MEAN_MOTION    = 14.14805093
ECCENTRICITY   = .0002186
INCLINATION    = 70.9753
RA_OF_ASC_NODE = 68.0732
ARG_OF_PERICENTER = 257.9802
MEAN_ANOMALY   = 275.0784

EPHEMERIS_TYPE = 0
CLASSIFICATION_TYPE = U
NORAD_CAT_ID   = 31793
ELEMENT_SET_NO = 999
REV_AT_EPOCH   = 94816
BSTAR          = .15555E-3
MEAN_MOTION_DOT = .252E-5
MEAN_MOTION_DDOT = 0

CCSDS_OMM_VERS = 2.0
CREATION_DATE  = 
ORIGINATOR     = 

OBJECT_NAME    = KORONAS-FOTON
OBJECT_ID      = 2009-003A
CENTER_NAME    = EARTH
REF_FRAME      = TEME
TIME_SYSTEM    = UTC
MEAN_ELEMENT_THEORY = SGP/SGP4

EPOCH          = 2025-11-07T16:20:49.733088
MEAN_MOTION    = 15.40043676
ECCENTRICITY   = .0010787
INCLINATION    = 82.4339
RA_OF_ASC_NODE = 42.3948
ARG_OF_PERICENTER = 231.9401
MEAN_ANOMALY   = 128.0872

EPHEMERIS_TYPE = 0
CLASSIFICATION_TYPE = U
NORAD_CAT_ID   = 33504
ELEMENT_SET_NO = 999
REV_AT_EPOCH   = 92694
BSTAR          = .46806E-3
MEAN_MOTION_DOT = .18786E-3
MEAN_MOTION_DDOT = 0

CCSDS_OMM_VERS = 2.0
CREATION_DATE  = 
ORIGINATOR     = 

OBJECT_NAME    = CZ-2C R/B
OBJECT_ID      = 2011-030B
CENTER_NAME    = EARTH
REF_FRAME      = TEME
TIME_SYSTEM    = UTC
MEAN_ELEMENT_THEORY = SGP/SGP4

EPOCH          = 2025-11-07T20:39:04.366080
MEAN_MOTION    = 14.80708797
ECCENTRICITY   = .005394
INCLINATION    = 97.8360
RA_OF_ASC_NODE = 266.7547
ARG_OF_PERICENTER = 28.3473
MEAN_ANOMALY   = 25.6777

EPHEMERIS_TYPE = 0
CLASSIFICATION_TYPE = U
NORAD_CAT_ID   = 37731
ELEMENT_SET_NO = 999
REV_AT_EPOCH   = 77206
BSTAR          = .37588E-3
MEAN_MOTION_DOT = .291E-4
MEAN_MOTION_DDOT = 0

